[{"OBJECT_NAME":"STARLINK-6357","OBJECT_ID":"2023-078S","EPOCH":"2026-03-09T23:18:07.793856","MEAN_MOTION":14.98327229,"ECCENTRICITY":0.00028075,"INCLINATION":70.0004,"RA_OF_ASC_NODE":323.8294,"ARG_OF_PERICENTER":259.551,"MEAN_ANOMALY":100.5333,"EPHEMERIS_TYPE":0,"CLASSIFICATION_TYPE":"U","NORAD_CAT_ID":56783,"ELEMENT_SET_NO":999,"REV_AT_EPOCH":15321,"BSTAR":-4.3098428e-5,"MEAN_MOTION_DOT":-6.07e-6,"MEAN_MOTION_DDOT":0},{"OBJECT_NAME":"MINOTAUR 1 R\/B","OBJECT_ID":"2021-052D","EPOCH":"2026-03-09T21:18:39.973824","MEAN_MOTION":14.98028633,"ECCENTRICITY":0.00079769,"INCLINATION":54.9882,"RA_OF_ASC_NODE":195.5395,"ARG_OF_PERICENTER":41.2727,"MEAN_ANOMALY":318.8885,"EPHEMERIS_TYPE":0,"CLASSIFICATION_TYPE":"U","NORAD_CAT_ID":48849,"ELEMENT_SET_NO":999,"REV_AT_EPOCH":16111,"BSTAR":0.00022925551,"MEAN_MOTION_DOT":2.48e-5,"MEAN_MOTION_DDOT":0}]
